{"fetched_at":"2026-07-22T07:09:20.374Z","source":"https://celestrak.org/NORAD/elements/gp.php?GROUP=kuiper&FORMAT=JSON","constellation":"kuiper","records":[{"OBJECT_NAME":"KUIPER-00549","OBJECT_ID":"2026-140AA","EPOCH":"2026-07-21T10:54:04.609728","CLASSIFICATION_TYPE":"U","MEAN_MOTION":15.37425932,"ECCENTRICITY":0.00080772,"INCLINATION":51.8777,"RA_OF_ASC_NODE":233.1368,"ARG_OF_PERICENTER":36.2455,"MEAN_ANOMALY":323.9078,"EPHEMERIS_TYPE":0,"NORAD_CAT_ID":69616,"ELEMENT_SET_NO":999,"REV_AT_EPOCH":650,"BSTAR":0.00044061487,"MEAN_MOTION_DOT":0.00016078,"MEAN_MOTION_DDOT":0},{"OBJECT_NAME":"KUIPER-00550","OBJECT_ID":"2026-140AB","EPOCH":"2026-07-21T11:05:29.160384","CLASSIFICATION_TYPE":"U","MEAN_MOTION":15.31307296,"ECCENTRICITY":0.00091798,"INCLINATION":51.878,"RA_OF_ASC_NODE":233.9187,"ARG_OF_PERICENTER":70.2453,"MEAN_ANOMALY":289.952,"EPHEMERIS_TYPE":0,"NORAD_CAT_ID":69617,"ELEMENT_SET_NO":999,"REV_AT_EPOCH":649,"BSTAR":-0.00034798843,"MEAN_MOTION_DOT":-0.00011046,"MEAN_MOTION_DDOT":0},{"OBJECT_NAME":"KUIPER-00551","OBJECT_ID":"2026-140AC","EPOCH":"2026-07-21T07:01:16.799520","CLASSIFICATION_TYPE":"U","MEAN_MOTION":15.38336198,"ECCENTRICITY":0.00127391,"INCLINATION":51.8788,"RA_OF_ASC_NODE":233.5623,"ARG_OF_PERICENTER":302.4654,"MEAN_ANOMALY":57.5101,"EPHEMERIS_TYPE":0,"NORAD_CAT_ID":69618,"ELEMENT_SET_NO":999,"REV_AT_EPOCH":648,"BSTAR":0.00042275048,"MEAN_MOTION_DOT":0.00015904,"MEAN_MOTION_DDOT":0},{"OBJECT_NAME":"KUIPER-00554","OBJECT_ID":"2026-140AD","EPOCH":"2026-07-21T11:51:45.036864","CLASSIFICATION_TYPE":"U","MEAN_MOTION":15.38090886,"ECCENTRICITY":0.00118373,"INCLINATION":51.8783,"RA_OF_ASC_NODE":232.6621,"ARG_OF_PERICENTER":313.8153,"MEAN_ANOMALY":46.1855,"EPHEMERIS_TYPE":0,"NORAD_CAT_ID":69619,"ELEMENT_SET_NO":999,"REV_AT_EPOCH":651,"BSTAR":0.00061882311,"MEAN_MOTION_DOT":0.00023293,"MEAN_MOTION_DDOT":0},{"OBJECT_NAME":"KUIPER-00555","OBJECT_ID":"2026-140AE","EPOCH":"2026-07-21T11:48:15.528960","CLASSIFICATION_TYPE":"U","MEAN_MOTION":15.37999685,"ECCENTRICITY":0.00119161,"INCLINATION":51.8814,"RA_OF_ASC_NODE":232.6572,"ARG_OF_PERICENTER":301.6187,"MEAN_ANOMALY":58.3637,"EPHEMERIS_TYPE":0,"NORAD_CAT_ID":69620,"ELEMENT_SET_NO":999,"REV_AT_EPOCH":651,"BSTAR":0.00060968616,"MEAN_MOTION_DOT":0.00022874,"MEAN_MOTION_DDOT":0},{"OBJECT_NAME":"KUIPER-00556","OBJECT_ID":"2026-140AF","EPOCH":"2026-07-21T11:44:25.487232","CLASSIFICATION_TYPE":"U","MEAN_MOTION":15.38360147,"ECCENTRICITY":0.00123994,"INCLINATION":51.8792,"RA_OF_ASC_NODE":232.6366,"ARG_OF_PERICENTER":292.3004,"MEAN_ANOMALY":67.6669,"EPHEMERIS_TYPE":0,"NORAD_CAT_ID":69621,"ELEMENT_SET_NO":999,"REV_AT_EPOCH":651,"BSTAR":0.00085331046,"MEAN_MOTION_DOT":0.00032605,"MEAN_MOTION_DDOT":0},{"OBJECT_NAME":"KUIPER-00557","OBJECT_ID":"2026-140AG","EPOCH":"2026-07-21T12:03:12.896640","CLASSIFICATION_TYPE":"U","MEAN_MOTION":15.37554616,"ECCENTRICITY":0.00097969,"INCLINATION":51.8788,"RA_OF_ASC_NODE":232.7215,"ARG_OF_PERICENTER":323.9649,"MEAN_ANOMALY":36.0677,"EPHEMERIS_TYPE":0,"NORAD_CAT_ID":69622,"ELEMENT_SET_NO":999,"REV_AT_EPOCH":651,"BSTAR":0.00049538896,"MEAN_MOTION_DOT":0.00018216,"MEAN_MOTION_DDOT":0},{"OBJECT_NAME":"KUIPER-00560","OBJECT_ID":"2026-140AH","EPOCH":"2026-07-21T10:19:09.976512","CLASSIFICATION_TYPE":"U","MEAN_MOTION":15.36949769,"ECCENTRICITY":0.00099627,"INCLINATION":51.8779,"RA_OF_ASC_NODE":232.9802,"ARG_OF_PERICENTER":333.6353,"MEAN_ANOMALY":26.4126,"EPHEMERIS_TYPE":0,"NORAD_CAT_ID":69623,"ELEMENT_SET_NO":999,"REV_AT_EPOCH":650,"BSTAR":0.00062598819,"MEAN_MOTION_DOT":0.00022684,"MEAN_MOTION_DDOT":0},{"OBJECT_NAME":"KUIPER-00561","OBJECT_ID":"2026-140AJ","EPOCH":"2026-07-21T11:45:03.709728","CLASSIFICATION_TYPE":"U","MEAN_MOTION":15.38833974,"ECCENTRICITY":0.00088031,"INCLINATION":51.8817,"RA_OF_ASC_NODE":232.6462,"ARG_OF_PERICENTER":328.8815,"MEAN_ANOMALY":31.165,"EPHEMERIS_TYPE":0,"NORAD_CAT_ID":69624,"ELEMENT_SET_NO":999,"REV_AT_EPOCH":651,"BSTAR":0.00066007803,"MEAN_MOTION_DOT":0.00025472,"MEAN_MOTION_DDOT":0},{"OBJECT_NAME":"KUIPER-00564","OBJECT_ID":"2026-140AK","EPOCH":"2026-07-21T10:27:07.013376","CLASSIFICATION_TYPE":"U","MEAN_MOTION":15.37253298,"ECCENTRICITY":0.00091219,"INCLINATION":51.8786,"RA_OF_ASC_NODE":233.0227,"ARG_OF_PERICENTER":326.7309,"MEAN_ANOMALY":33.3103,"EPHEMERIS_TYPE":0,"NORAD_CAT_ID":69625,"ELEMENT_SET_NO":999,"REV_AT_EPOCH":650,"BSTAR":0.00077879422,"MEAN_MOTION_DOT":0.00028615,"MEAN_MOTION_DDOT":0},{"OBJECT_NAME":"KUIPER-00567","OBJECT_ID":"2026-140AL","EPOCH":"2026-07-21T11:40:31.923840","CLASSIFICATION_TYPE":"U","MEAN_MOTION":15.38406916,"ECCENTRICITY":0.00135531,"INCLINATION":51.8767,"RA_OF_ASC_NODE":232.6094,"ARG_OF_PERICENTER":292.5774,"MEAN_ANOMALY":67.3778,"EPHEMERIS_TYPE":0,"NORAD_CAT_ID":69626,"ELEMENT_SET_NO":999,"REV_AT_EPOCH":651,"BSTAR":0.00074071145,"MEAN_MOTION_DOT":0.00028291,"MEAN_MOTION_DDOT":0},{"OBJECT_NAME":"KUIPER-00573","OBJECT_ID":"2026-140AM","EPOCH":"2026-07-21T07:27:50.499360","CLASSIFICATION_TYPE":"U","MEAN_MOTION":15.375862,"ECCENTRICITY":0.00094207,"INCLINATION":51.8766,"RA_OF_ASC_NODE":233.6792,"ARG_OF_PERICENTER":309.1691,"MEAN_ANOMALY":50.8458,"EPHEMERIS_TYPE":0,"NORAD_CAT_ID":69627,"ELEMENT_SET_NO":999,"REV_AT_EPOCH":648,"BSTAR":0.00040609962,"MEAN_MOTION_DOT":0.00014869,"MEAN_MOTION_DDOT":0},{"OBJECT_NAME":"KUIPER-00258","OBJECT_ID":"2026-151A","EPOCH":"2026-07-21T13:59:08.282400","CLASSIFICATION_TYPE":"U","MEAN_MOTION":15.34751256,"ECCENTRICITY":0.00110318,"INCLINATION":51.8687,"RA_OF_ASC_NODE":149.7823,"ARG_OF_PERICENTER":192.3011,"MEAN_ANOMALY":167.7707,"EPHEMERIS_TYPE":0,"NORAD_CAT_ID":69763,"ELEMENT_SET_NO":999,"REV_AT_EPOCH":299,"BSTAR":0.00058542139,"MEAN_MOTION_DOT":0.00019726,"MEAN_MOTION_DDOT":0},{"OBJECT_NAME":"KUIPER-00526","OBJECT_ID":"2026-151B","EPOCH":"2026-07-21T11:49:33.461760","CLASSIFICATION_TYPE":"U","MEAN_MOTION":15.36735088,"ECCENTRICITY":0.0005419,"INCLINATION":51.8765,"RA_OF_ASC_NODE":149.9454,"ARG_OF_PERICENTER":187.9037,"MEAN_ANOMALY":172.1865,"EPHEMERIS_TYPE":0,"NORAD_CAT_ID":69764,"ELEMENT_SET_NO":999,"REV_AT_EPOCH":298,"BSTAR":-0.00616331,"MEAN_MOTION_DOT":-0.00218807,"MEAN_MOTION_DDOT":0},{"OBJECT_NAME":"KUIPER-00558","OBJECT_ID":"2026-151C","EPOCH":"2026-07-21T14:00:01.999872","CLASSIFICATION_TYPE":"U","MEAN_MOTION":15.2951283,"ECCENTRICITY":0.00066822,"INCLINATION":51.8804,"RA_OF_ASC_NODE":149.7419,"ARG_OF_PERICENTER":175.858,"MEAN_ANOMALY":207.4252,"EPHEMERIS_TYPE":0,"NORAD_CAT_ID":69765,"ELEMENT_SET_NO":999,"REV_AT_EPOCH":360,"BSTAR":-0.04181646,"MEAN_MOTION_DOT":-0.01110428,"MEAN_MOTION_DDOT":0},{"OBJECT_NAME":"KUIPER-00569","OBJECT_ID":"2026-151D","EPOCH":"2026-07-21T13:20:15.713952","CLASSIFICATION_TYPE":"U","MEAN_MOTION":15.37235983,"ECCENTRICITY":0.0004188,"INCLINATION":51.8781,"RA_OF_ASC_NODE":149.6202,"ARG_OF_PERICENTER":123.0695,"MEAN_ANOMALY":237.0694,"EPHEMERIS_TYPE":0,"NORAD_CAT_ID":69766,"ELEMENT_SET_NO":999,"REV_AT_EPOCH":299,"BSTAR":0.0029881373,"MEAN_MOTION_DOT":0.00111962,"MEAN_MOTION_DDOT":0}]}
