{"epoch":1784710044,"count":18256,"objects":[{"id":"69616","name":"KUIPER-00549","type":"PAYLOAD","l1":"1 69616U 26140AA  26202.45422002  .00016078  00000-0  44061-3 0  9992","l2":"2 69616  51.8777 233.1368 0008077  36.2455 323.9078 15.37425932  6502"},{"id":"69617","name":"KUIPER-00550","type":"PAYLOAD","l1":"1 69617U 26140AB  26202.46214306 -.00011046  00000-0 -34799-3 0  9999","l2":"2 69617  51.8780 233.9187 0009180  70.2453 289.9520 15.31307296  6493"},{"id":"69618","name":"KUIPER-00551","type":"PAYLOAD","l1":"1 69618U 26140AC  26202.29255555  .00015904  00000-0  42275-3 0  9995","l2":"2 69618  51.8788 233.5623 0012739 302.4654  57.5101 15.38336198  6483"},{"id":"69619","name":"KUIPER-00554","type":"PAYLOAD","l1":"1 69619U 26140AD  26202.49427126  .00023293  00000-0  61882-3 0  9998","l2":"2 69619  51.8783 232.6621 0011837 313.8153  46.1855 15.38090886  6510"},{"id":"69620","name":"KUIPER-00555","type":"PAYLOAD","l1":"1 69620U 26140AE  26202.49184640  .00022874  00000-0  60969-3 0  9990","l2":"2 69620  51.8814 232.6572 0011916 301.6187  58.3637 15.37999685  6519"},{"id":"69621","name":"KUIPER-00556","type":"PAYLOAD","l1":"1 69621U 26140AF  26202.48918388  .00032605  00000-0  85331-3 0  9997","l2":"2 69621  51.8792 232.6366 0012399 292.3004  67.6669 15.38360147  6510"},{"id":"69622","name":"KUIPER-00557","type":"PAYLOAD","l1":"1 69622U 26140AG  26202.50223260  .00018216  00000-0  49539-3 0  9991","l2":"2 69622  51.8788 232.7215 0009797 323.9649  36.0677 15.37554616  6518"},{"id":"69623","name":"KUIPER-00560","type":"PAYLOAD","l1":"1 69623U 26140AH  26202.42997658  .00022684  00000-0  62599-3 0  9997","l2":"2 69623  51.8779 232.9802 0009963 333.6353  26.4126 15.36949769  6505"},{"id":"69624","name":"KUIPER-00561","type":"PAYLOAD","l1":"1 69624U 26140AJ  26202.48962627  .00025472  00000-0  66008-3 0  9999","l2":"2 69624  51.8817 232.6462 0008803 328.8815  31.1650 15.38833974  6517"},{"id":"69625","name":"KUIPER-00564","type":"PAYLOAD","l1":"1 69625U 26140AK  26202.43549784  .00028615  00000-0  77879-3 0  9990","l2":"2 69625  51.8786 233.0227 0009122 326.7309  33.3103 15.37253298  6507"},{"id":"69626","name":"KUIPER-00567","type":"PAYLOAD","l1":"1 69626U 26140AL  26202.48648060  .00028291  00000-0  74071-3 0  9994","l2":"2 69626  51.8767 232.6094 0013553 292.5774  67.3778 15.38406916  6517"},{"id":"69627","name":"KUIPER-00573","type":"PAYLOAD","l1":"1 69627U 26140AM  26202.31100115  .00014869  00000-0  40610-3 0  9999","l2":"2 69627  51.8766 233.6792 0009421 309.1691  50.8458 15.37586200  6487"},{"id":"69763","name":"KUIPER-00258","type":"PAYLOAD","l1":"1 69763U 26151A   26202.58273475  .00019726  00000-0  58542-3 0  9991","l2":"2 69763  51.8687 149.7823 0011032 192.3011 167.7707 15.34751256  2990"},{"id":"69764","name":"KUIPER-00526","type":"PAYLOAD","l1":"1 69764U 26151B   26202.49274840 -.00218807  00000-0 -61633-2 0  9996","l2":"2 69764  51.8765 149.9454 0005419 187.9037 172.1865 15.36735088  2981"},{"id":"69765","name":"KUIPER-00558","type":"PAYLOAD","l1":"1 69765U 26151C   26202.58335648 -.01110428  00000-0 -41816-1 0  9992","l2":"2 69765  51.8804 149.7419 0006682 175.8580 207.4252 15.29512830  3609"},{"id":"69766","name":"KUIPER-00569","type":"PAYLOAD","l1":"1 69766U 26151D   26202.55573743  .00111962  00000-0  29881-2 0  9990","l2":"2 69766  51.8781 149.6202 0004188 123.0695 237.0694 15.37235983  2994"}]}